ISS (ZARYA)             
1 25544U 98067A   26051.53885789  .00009982  00000+0  19450-3 0  9996
2 25544  51.6324 157.1302 0008583 115.7613 244.4262 15.48162254553678
CSS (TIANHE)            
1 48274U 21035A   26051.75343516  .00023128  00000+0  28184-3 0  9995
2 48274  41.4672 311.1545 0004809 157.2920 202.8132 15.59939146274966
ISS (NAUKA)             
1 49044U 21066A   26051.21610692  .00009352  00000+0  18284-3 0  9991
2 49044  51.6324 158.7245 0008575 115.0388 245.1491 15.48153499230445
FREGAT DEB              
1 49271U 11037PF  26051.18570664  .00032423  00000+0  50376-1 0  9991
2 49271  51.6524 353.1956 0944635  19.1782 344.2258 12.39041689210520
CSS (WENTIAN)           
1 53239U 22085A   26051.17723654  .00020706  00000+0  25310-3 0  9996
2 53239  41.4676 314.6566 0004643 152.1392 207.9696 15.59912191173848
CSS (MENGTIAN)          
1 54216U 22143A   26051.17723654  .00020706  00000+0  25310-3 0  9997
2 54216  41.4676 314.6566 0004643 152.1392 207.9696 15.59912191158645
PROGRESS-MS 31          
1 64751U 25146A   26051.21610692  .00009352  00000+0  18284-3 0  9996
2 64751  51.6324 158.7245 0008575 115.0388 245.1491 15.48153499  6752
TIANZHOU-9              
1 64786U 25149A   26051.17723654  .00020706  00000+0  25310-3 0  9999
2 64786  41.4676 314.6566 0004643 152.1392 207.9696 15.59912191255309
DRAGON CRS-33           
1 65304U 25186A   26051.21610692  .00009352  00000+0  18284-3 0  9995
2 65304  51.6324 158.7245 0008575 115.0388 245.1491 15.48153499   111
PROGRESS-MS 32          
1 65586U 25204A   26051.21610692  .00009352  00000+0  18284-3 0  9998
2 65586  51.6324 158.7245 0008575 115.0388 245.1491 15.48153499   270
CYGNUS NG-23            
1 65616U 25208A   26051.21610692  .00009352  00000+0  18284-3 0  9996
2 65616  51.6324 158.7245 0008575 115.0388 245.1491 15.48153499   229
ISS OBJECT XK           
1 65731U 98067XK  26051.42543639  .00324540  50981-4  95447-3 0  9999
2 65731  51.6214 138.2815 0006959 356.8038   3.2923 15.92125863 24134
